ACS3                    
1 59588U 24077B   24152.20179771  .00000049  00000+0  90999-4 0  9995
2 59588  97.4064 224.3267 0021233 138.5102 221.7665 13.67682240  5085
